{
  "type": "FeatureCollection",
  "features": [
    {
      "type": "Feature",
      "properties": {
        "norad_id": 55973,
        "name": "TIANMU-1 03",
        "group": "weather",
        "lat": -80.01996578760813,
        "lon": -69.96700945661145,
        "alt_km": 451.83580288762005,
        "timestamp": "2025-12-21T16:47:54.372031+00:00",
        "meta_object_name": "TIANMU-1 03",
        "meta_object_id": "2023-039A",
        "meta_epoch": "2025-12-21T12:32:32.112960",
        "meta_mean_motion": 15.41160335,
        "meta_eccentricity": 0.0003961,
        "meta_inclination": 97.5106,
        "meta_ra_of_asc_node": 158.4207,
        "meta_arg_of_pericenter": 35.9528,
        "meta_mean_anomaly": 324.1984,
        "meta_ephemeris_type": 0,
        "meta_classification_type": "U",
        "meta_norad_cat_id": 55973,
        "meta_element_set_no": 999,
        "meta_rev_at_epoch": 15341,
        "meta_bstar": 0.00030263,
        "meta_mean_motion_dot": 0.00012465,
        "meta_mean_motion_ddot": 0,
        "tle_line1": "1 55973U 23039A   25355.52259390  .00012465  00000+0  30263-3 0  9995",
        "tle_line2": "2 55973  97.5106 158.4207 0003961  35.9528 324.1984 15.41160335153411"
      },
      "geometry": {
        "type": "Point",
        "coordinates": [
          -69.96700945661145,
          -80.01996578760813
        ]
      }
    },
    {
      "type": "Feature",
      "properties": {
        "norad_id": 55974,
        "name": "TIANMU-1 04",
        "group": "weather",
        "lat": 27.957575482306254,
        "lon": 153.77876998927636,
        "alt_km": 437.42788895183094,
        "timestamp": "2025-12-21T16:47:54.372041+00:00",
        "meta_object_name": "TIANMU-1 04",
        "meta_object_id": "2023-039B",
        "meta_epoch": "2025-12-21T12:00:09.739008",
        "meta_mean_motion": 15.41500735,
        "meta_eccentricity": 0.00046,
        "meta_inclination": 97.5038,
        "meta_ra_of_asc_node": 157.5852,
        "meta_arg_of_pericenter": 29.764,
        "meta_mean_anomaly": 330.3867,
        "meta_ephemeris_type": 0,
        "meta_classification_type": "U",
        "meta_norad_cat_id": 55974,
        "meta_element_set_no": 999,
        "meta_rev_at_epoch": 15341,
        "meta_bstar": 0.00029609,
        "meta_mean_motion_dot": 0.00012334,
        "meta_mean_motion_ddot": 0,
        "tle_line1": "1 55974U 23039B   25355.50011272  .00012334  00000+0  29609-3 0  9996",
        "tle_line2": "2 55974  97.5038 157.5852 0004600  29.7640 330.3867 15.41500735153410"
      },
      "geometry": {
        "type": "Point",
        "coordinates": [
          153.77876998927636,
          27.957575482306254
        ]
      }
    },
    {
      "type": "Feature",
      "properties": {
        "norad_id": 55975,
        "name": "TIANMU-1 05",
        "group": "weather",
        "lat": 47.3016341500364,
        "lon": 150.0650092838887,
        "alt_km": 435.90694634558076,
        "timestamp": "2025-12-21T16:47:54.372052+00:00",
        "meta_object_name": "TIANMU-1 05",
        "meta_object_id": "2023-039C",
        "meta_epoch": "2025-12-21T11:55:00.223104",
        "meta_mean_motion": 15.41116537,
        "meta_eccentricity": 0.000408,
        "meta_inclination": 97.5085,
        "meta_ra_of_asc_node": 158.0742,
        "meta_arg_of_pericenter": 54.6948,
        "meta_mean_anomaly": 305.4679,
        "meta_ephemeris_type": 0,
        "meta_classification_type": "U",
        "meta_norad_cat_id": 55975,
        "meta_element_set_no": 999,
        "meta_rev_at_epoch": 15339,
        "meta_bstar": 0.00029207,
        "meta_mean_motion_dot": 0.00012009,
        "meta_mean_motion_ddot": 0,
        "tle_line1": "1 55975U 23039C   25355.49653036  .00012009  00000+0  29207-3 0  9998",
        "tle_line2": "2 55975  97.5085 158.0742 0004080  54.6948 305.4679 15.41116537153391"
      },
      "geometry": {
        "type": "Point",
        "coordinates": [
          150.0650092838887,
          47.3016341500364
        ]
      }
    },
    {
      "type": "Feature",
      "properties": {
        "norad_id": 55976,
        "name": "TIANMU-1 06",
        "group": "weather",
        "lat": 17.6430301979433,
        "lon": 156.35122921022077,
        "alt_km": 439.49196305949226,
        "timestamp": "2025-12-21T16:47:54.372064+00:00",
        "meta_object_name": "TIANMU-1 06",
        "meta_object_id": "2023-039D",
        "meta_epoch": "2025-12-21T12:02:52.281600",
        "meta_mean_motion": 15.41552317,
        "meta_eccentricity": 0.0004361,
        "meta_inclination": 97.5095,
        "meta_ra_of_asc_node": 158.5522,
        "meta_arg_of_pericenter": 48.749,
        "meta_mean_anomaly": 311.4131,
        "meta_ephemeris_type": 0,
        "meta_classification_type": "U",
        "meta_norad_cat_id": 55976,
        "meta_element_set_no": 999,
        "meta_rev_at_epoch": 15341,
        "meta_bstar": 0.00029525,
        "meta_mean_motion_dot": 0.00012319,
        "meta_mean_motion_ddot": 0,
        "tle_line1": "1 55976U 23039D   25355.50199400  .00012319  00000+0  29525-3 0  9998",
        "tle_line2": "2 55976  97.5095 158.5522 0004361  48.7490 311.4131 15.41552317153415"
      },
      "geometry": {
        "type": "Point",
        "coordinates": [
          156.35122921022077,
          17.6430301979433
        ]
      }
    },
    {
      "type": "Feature",
      "properties": {
        "norad_id": 56232,
        "name": "FENGYUN 3G",
        "group": "weather",
        "lat": -22.380522974931125,
        "lon": 21.432779201603235,
        "alt_km": 401.68525423678966,
        "timestamp": "2025-12-21T16:47:54.372074+00:00",
        "meta_object_name": "FENGYUN 3G",
        "meta_object_id": "2023-055A",
        "meta_epoch": "2025-12-21T12:48:49.637376",
        "meta_mean_motion": 15.54128232,
        "meta_eccentricity": 0.0009332,
        "meta_inclination": 49.9916,
        "meta_ra_of_asc_node": 182.0558,
        "meta_arg_of_pericenter": 188.1671,
        "meta_mean_anomaly": 171.9146,
        "meta_ephemeris_type": 0,
        "meta_classification_type": "U",
        "meta_norad_cat_id": 56232,
        "meta_element_set_no": 999,
        "meta_rev_at_epoch": 15239,
        "meta_bstar": 0.00039721,
        "meta_mean_motion_dot": 0.00025985,
        "meta_mean_motion_ddot": 0,
        "tle_line1": "1 56232U 23055A   25355.53390784  .00025985  00000+0  39721-3 0  9995",
        "tle_line2": "2 56232  49.9916 182.0558 0009332 188.1671 171.9146 15.54128232152398"
      },
      "geometry": {
        "type": "Point",
        "coordinates": [
          21.432779201603235,
          -22.380522974931125
        ]
      }
    },
    {
      "type": "Feature",
      "properties": {
        "norad_id": 57166,
        "name": "METEOR-M2 3",
        "group": "weather",
        "lat": 73.29128890685591,
        "lon": 18.66387768837943,
        "alt_km": 804.8878725717786,
        "timestamp": "2025-12-21T16:47:54.372085+00:00",
        "meta_object_name": "METEOR-M2 3",
        "meta_object_id": "2023-091A",
        "meta_epoch": "2025-12-21T13:04:19.277184",
        "meta_mean_motion": 14.24027065,
        "meta_eccentricity": 0.0003426,
        "meta_inclination": 98.6365,
        "meta_ra_of_asc_node": 48.9298,
        "meta_arg_of_pericenter": 342.132,
        "meta_mean_anomaly": 17.9738,
        "meta_ephemeris_type": 0,
        "meta_classification_type": "U",
        "meta_norad_cat_id": 57166,
        "meta_element_set_no": 999,
        "meta_rev_at_epoch": 12923,
        "meta_bstar": 2.1178e-05,
        "meta_mean_motion_dot": 5e-08,
        "meta_mean_motion_ddot": 0,
        "tle_line1": "1 57166U 23091A   25355.54466756  .00000005  00000+0  21178-4 0  9990",
        "tle_line2": "2 57166  98.6365  48.9298 0003426 342.1320  17.9738 14.24027065129237"
      },
      "geometry": {
        "type": "Point",
        "coordinates": [
          18.66387768837943,
          73.29128890685591
        ]
      }
    },
    {
      "type": "Feature",
      "properties": {
        "norad_id": 57399,
        "name": "TIANMU-1 07",
        "group": "weather",
        "lat": 14.816609829865653,
        "lon": 43.41273643398702,
        "alt_km": 479.59716436963845,
        "timestamp": "2025-12-21T16:47:54.372095+00:00",
        "meta_object_name": "TIANMU-1 07",
        "meta_object_id": "2023-101A",
        "meta_epoch": "2025-12-21T10:26:50.220672",
        "meta_mean_motion": 15.28184869,
        "meta_eccentricity": 0.0005253,
        "meta_inclination": 97.2863,
        "meta_ra_of_asc_node": 45.0935,
        "meta_arg_of_pericenter": 59.5221,
        "meta_mean_anomaly": 300.6537,
        "meta_ephemeris_type": 0,
        "meta_classification_type": "U",
        "meta_norad_cat_id": 57399,
        "meta_element_set_no": 999,
        "meta_rev_at_epoch": 13448,
        "meta_bstar": 0.00021136,
        "meta_mean_motion_dot": 5.735e-05,
        "meta_mean_motion_ddot": 0,
        "tle_line1": "1 57399U 23101A   25355.43530348  .00005735  00000+0  21136-3 0  9995",
        "tle_line2": "2 57399  97.2863  45.0935 0005253  59.5221 300.6537 15.28184869134481"
      },
      "geometry": {
        "type": "Point",
        "coordinates": [
          43.41273643398702,
          14.816609829865653
        ]
      }
    }
  ]
}